{
  "type": "FeatureCollection",
  "features": [
    {
      "type": "Feature",
      "properties": {
        "norad_id": 30199,
        "name": "FENGYUN 1C DEB",
        "group": "fengyun-1c-debris",
        "lat": 62.14095258221444,
        "lon": -147.6233356751456,
        "alt_km": 812.4490511258136,
        "timestamp": "2025-12-18T13:51:49.958342+00:00",
        "meta_object_name": "FENGYUN 1C DEB",
        "meta_object_id": "1999-025VG",
        "meta_epoch": "2025-12-18T01:57:14.980032",
        "meta_mean_motion": 14.3854537,
        "meta_eccentricity": 0.00776912,
        "meta_inclination": 98.3848,
        "meta_ra_of_asc_node": 15.6887,
        "meta_arg_of_pericenter": 292.4527,
        "meta_mean_anomaly": 135.835,
        "meta_ephemeris_type": 0,
        "meta_classification_type": "U",
        "meta_norad_cat_id": 30199,
        "meta_element_set_no": 999,
        "meta_rev_at_epoch": 98487,
        "meta_bstar": 0.00075885141,
        "meta_mean_motion_dot": 2.359e-05,
        "meta_mean_motion_ddot": 0,
        "tle_line1": "1 30199U 99025VG  25352.08142338  .00002359  00000+0  75885-3 0  9997",
        "tle_line2": "2 30199  98.3848  15.6887 0077691 292.4527 135.8350 14.38545370984871"
      },
      "geometry": {
        "type": "Point",
        "coordinates": [
          -147.6233356751456,
          62.14095258221444
        ]
      }
    },
    {
      "type": "Feature",
      "properties": {
        "norad_id": 30200,
        "name": "FENGYUN 1C DEB",
        "group": "fengyun-1c-debris",
        "lat": 68.33661901795294,
        "lon": 31.363279993626286,
        "alt_km": 716.0178502124672,
        "timestamp": "2025-12-18T13:51:49.958352+00:00",
        "meta_object_name": "FENGYUN 1C DEB",
        "meta_object_id": "1999-025VH",
        "meta_epoch": "2025-12-17T23:51:15.899328",
        "meta_mean_motion": 14.22280332,
        "meta_eccentricity": 0.0147589,
        "meta_inclination": 99.1126,
        "meta_ra_of_asc_node": 186.9268,
        "meta_arg_of_pericenter": 84.3413,
        "meta_mean_anomaly": 277.4573,
        "meta_ephemeris_type": 0,
        "meta_classification_type": "U",
        "meta_norad_cat_id": 30200,
        "meta_element_set_no": 999,
        "meta_rev_at_epoch": 98057,
        "meta_bstar": 0.00011927738,
        "meta_mean_motion_dot": 2.49e-06,
        "meta_mean_motion_ddot": 0,
        "tle_line1": "1 30200U 99025VH  25351.99393402  .00000249  00000+0  11928-3 0  9993",
        "tle_line2": "2 30200  99.1126 186.9268 0147589  84.3413 277.4573 14.22280332980573"
      },
      "geometry": {
        "type": "Point",
        "coordinates": [
          31.363279993626286,
          68.33661901795294
        ]
      }
    },
    {
      "type": "Feature",
      "properties": {
        "norad_id": 30201,
        "name": "FENGYUN 1C DEB",
        "group": "fengyun-1c-debris",
        "lat": 33.37055142996957,
        "lon": 120.91877547871192,
        "alt_km": 816.0825370057546,
        "timestamp": "2025-12-18T13:51:49.958362+00:00",
        "meta_object_name": "FENGYUN 1C DEB",
        "meta_object_id": "1999-025VJ",
        "meta_epoch": "2025-12-17T15:46:00.995808",
        "meta_mean_motion": 14.22951632,
        "meta_eccentricity": 0.00287153,
        "meta_inclination": 99.4013,
        "meta_ra_of_asc_node": 126.2014,
        "meta_arg_of_pericenter": 298.5108,
        "meta_mean_anomaly": 61.3177,
        "meta_ephemeris_type": 0,
        "meta_classification_type": "U",
        "meta_norad_cat_id": 30201,
        "meta_element_set_no": 999,
        "meta_rev_at_epoch": 97897,
        "meta_bstar": 0.00037912948,
        "meta_mean_motion_dot": 8.06e-06,
        "meta_mean_motion_ddot": 0,
        "tle_line1": "1 30201U 99025VJ  25351.65695597  .00000806  00000+0  37913-3 0  9998",
        "tle_line2": "2 30201  99.4013 126.2014 0028715 298.5108  61.3177 14.22951632978976"
      },
      "geometry": {
        "type": "Point",
        "coordinates": [
          120.91877547871192,
          33.37055142996957
        ]
      }
    },
    {
      "type": "Feature",
      "properties": {
        "norad_id": 30202,
        "name": "FENGYUN 1C DEB",
        "group": "fengyun-1c-debris",
        "lat": -81.32134142576862,
        "lon": 175.0575882267282,
        "alt_km": 742.4401548132537,
        "timestamp": "2025-12-18T13:51:49.958372+00:00",
        "meta_object_name": "FENGYUN 1C DEB",
        "meta_object_id": "1999-025VK",
        "meta_epoch": "2025-12-18T06:00:26.855712",
        "meta_mean_motion": 14.52461645,
        "meta_eccentricity": 0.00384888,
        "meta_inclination": 98.6408,
        "meta_ra_of_asc_node": 89.7011,
        "meta_arg_of_pericenter": 41.7702,
        "meta_mean_anomaly": 318.642,
        "meta_ephemeris_type": 0,
        "meta_classification_type": "U",
        "meta_norad_cat_id": 30202,
        "meta_element_set_no": 999,
        "meta_rev_at_epoch": 98369,
        "meta_bstar": 0.0017493017,
        "meta_mean_motion_dot": 7.163e-05,
        "meta_mean_motion_ddot": 0,
        "tle_line1": "1 30202U 99025VK  25352.25031083  .00007163  00000+0  17493-2 0  9993",
        "tle_line2": "2 30202  98.6408  89.7011 0038488  41.7702 318.6420 14.52461645983699"
      },
      "geometry": {
        "type": "Point",
        "coordinates": [
          175.0575882267282,
          -81.32134142576862
        ]
      }
    },
    {
      "type": "Feature",
      "properties": {
        "norad_id": 30205,
        "name": "FENGYUN 1C DEB",
        "group": "fengyun-1c-debris",
        "lat": 50.793545135718595,
        "lon": 92.50354715272483,
        "alt_km": 963.4508902994558,
        "timestamp": "2025-12-18T13:51:49.958382+00:00",
        "meta_object_name": "FENGYUN 1C DEB",
        "meta_object_id": "1999-025VN",
        "meta_epoch": "2025-12-18T06:51:14.874048",
        "meta_mean_motion": 13.88046478,
        "meta_eccentricity": 0.01212176,
        "meta_inclination": 98.9968,
        "meta_ra_of_asc_node": 103.4202,
        "meta_arg_of_pericenter": 164.8238,
        "meta_mean_anomaly": 229.5228,
        "meta_ephemeris_type": 0,
        "meta_classification_type": "U",
        "meta_norad_cat_id": 30205,
        "meta_element_set_no": 999,
        "meta_rev_at_epoch": 95715,
        "meta_bstar": 0.00026721635,
        "meta_mean_motion_dot": 2.96e-06,
        "meta_mean_motion_ddot": 0,
        "tle_line1": "1 30205U 99025VN  25352.28558882  .00000296  00000+0  26722-3 0  9996",
        "tle_line2": "2 30205  98.9968 103.4202 0121217 164.8238 229.5228 13.88046478957155"
      },
      "geometry": {
        "type": "Point",
        "coordinates": [
          92.50354715272483,
          50.793545135718595
        ]
      }
    },
    {
      "type": "Feature",
      "properties": {
        "norad_id": 30206,
        "name": "FENGYUN 1C DEB",
        "group": "fengyun-1c-debris",
        "lat": -4.699487613182402,
        "lon": 171.01811246417617,
        "alt_km": 832.3358885034231,
        "timestamp": "2025-12-18T13:51:49.958393+00:00",
        "meta_object_name": "FENGYUN 1C DEB",
        "meta_object_id": "1999-025VP",
        "meta_epoch": "2025-12-17T23:45:44.600256",
        "meta_mean_motion": 14.49175735,
        "meta_eccentricity": 0.01457006,
        "meta_inclination": 98.2311,
        "meta_ra_of_asc_node": 351.1265,
        "meta_arg_of_pericenter": 20.3326,
        "meta_mean_anomaly": 340.3588,
        "meta_ephemeris_type": 0,
        "meta_classification_type": "U",
        "meta_norad_cat_id": 30206,
        "meta_element_set_no": 999,
        "meta_rev_at_epoch": 99477,
        "meta_bstar": 0.00040164725,
        "meta_mean_motion_dot": 1.7e-05,
        "meta_mean_motion_ddot": 0,
        "tle_line1": "1 30206U 99025VP  25351.99009954  .00001700  00000+0  40165-3 0  9993",
        "tle_line2": "2 30206  98.2311 351.1265 0145700  20.3326 340.3588 14.49175735994776"
      },
      "geometry": {
        "type": "Point",
        "coordinates": [
          171.01811246417617,
          -4.699487613182402
        ]
      }
    },
    {
      "type": "Feature",
      "properties": {
        "norad_id": 30207,
        "name": "FENGYUN 1C DEB",
        "group": "fengyun-1c-debris",
        "lat": 55.64461056164149,
        "lon": -64.514304959334,
        "alt_km": 772.4707494397071,
        "timestamp": "2025-12-18T13:51:49.958403+00:00",
        "meta_object_name": "FENGYUN 1C DEB",
        "meta_object_id": "1999-025VQ",
        "meta_epoch": "2025-12-18T06:24:11.356704",
        "meta_mean_motion": 13.79140209,
        "meta_eccentricity": 0.02606533,
        "meta_inclination": 98.5742,
        "meta_ra_of_asc_node": 102.4535,
        "meta_arg_of_pericenter": 133.4517,
        "meta_mean_anomaly": 247.7898,
        "meta_ephemeris_type": 0,
        "meta_classification_type": "U",
        "meta_norad_cat_id": 30207,
        "meta_element_set_no": 999,
        "meta_rev_at_epoch": 95139,
        "meta_bstar": 0.0001765429,
        "meta_mean_motion_dot": 1.97e-06,
        "meta_mean_motion_ddot": 0,
        "tle_line1": "1 30207U 99025VQ  25352.26679811  .00000197  00000+0  17654-3 0  9996",
        "tle_line2": "2 30207  98.5742 102.4535 0260653 133.4517 247.7898 13.79140209951393"
      },
      "geometry": {
        "type": "Point",
        "coordinates": [
          -64.514304959334,
          55.64461056164149
        ]
      }
    }
  ]
}